OBJECT_NAME,OBJECT_ID,EPOCH,MEAN_MOTION,ECCENTRICITY,INCLINATION,RA_OF_ASC_NODE,ARG_OF_PERICENTER,MEAN_ANOMALY,EPHEMERIS_TYPE,CLASSIFICATION_TYPE,NORAD_CAT_ID,ELEMENT_SET_NO,REV_AT_EPOCH,BSTAR,MEAN_MOTION_DOT,MEAN_MOTION_DDOT
QIANFAN-210,2026-153K,2026-07-20T20:51:02.733696,14.20411043,.00076282,88.9936,358.3931,150.9177,209.2439,0,U,69809,999,235,.25919118E-4,.7E-6,0
QIANFAN-211,2026-153L,2026-07-21T05:17:18.266784,14.20224357,.00078533,88.9929,358.3549,158.0994,202.0533,0,U,69810,999,240,.28192403E-4,.75E-6,0
QIANFAN-212,2026-153M,2026-07-20T20:41:48.975360,14.21342685,.00111051,88.9946,358.4130,164.2291,195.9248,0,U,69811,999,235,.26358035E-4,.72E-6,0
QIANFAN-213,2026-153N,2026-07-17T21:48:21.510720,14.21939575,.00078274,88.9917,358.7338,155.5754,204.5809,0,U,69812,999,193,-.9822754E+0,-.2004805E-1,0
QIANFAN-214,2026-153P,2026-07-21T06:39:04.365504,14.25491976,.00085968,88.9928,358.3447,163.4412,196.7063,0,U,69813,999,241,.30864919E-4,.88E-6,0
QIANFAN-215,2026-153Q,2026-07-21T04:55:31.039968,14.26679897,.00085977,88.9927,358.3524,165.5586,194.5855,0,U,69814,999,240,.30829815E-4,.89E-6,0
QIANFAN-216,2026-153R,2026-07-21T06:36:29.672352,14.26676687,.00088357,88.9929,358.3445,165.5891,194.5557,0,U,69815,999,241,.31396703E-4,.91E-6,0
QIANFAN-217,2026-153S,2026-07-21T04:54:34.675200,14.26768483,.00083403,88.9927,358.3523,163.3242,196.8228,0,U,69816,999,240,.28450575E-4,.84E-6,0
QIANFAN-218,2026-153T,2026-07-21T04:53:51.966816,14.26812158,.00081088,88.9930,358.3528,160.7587,199.3915,0,U,69817,999,240,.69411131E-4,.183E-5,0
CZ-6A R/B,2026-153U,2026-07-21T05:47:32.076672,14.53450706,.00868649,89.0170,358.2642,66.8244,294.2086,0,U,69818,999,245,.52598866E-4,.249E-5,0
STARLINK-37520,2026-154A,2026-07-20T15:09:45.552672,15.80925087,.00023409,53.1579,265.7058,26.5616,333.5526,0,U,69819,999,367,.90929441E-3,.18307E-2,0
STARLINK-37553,2026-154B,2026-07-21T04:47:59.529984,15.81088792,.00013881,53.1575,262.8486,143.3177,216.7941,0,U,69820,999,376,.21399431E-2,.448799E-2,0
STARLINK-37561,2026-154C,2026-07-20T15:07:36.087456,15.80922000,.00029438,53.1578,265.6953,25.5849,334.5319,0,U,69821,999,367,.93156913E-3,.187659E-2,0
STARLINK-37521,2026-154D,2026-07-20T15:06:30.773376,15.80914210,.00012942,53.1576,265.6901,102.7861,257.3306,0,U,69822,999,367,.90983266E-3,.183077E-2,0
STARLINK-37628,2026-154E,2026-07-21T04:44:45.082464,15.80962837,.00014894,53.1575,262.8337,100.2096,259.9095,0,U,69823,999,376,.14461763E-2,.295951E-2,0
STARLINK-37695,2026-154F,2026-07-21T04:34:44.866848,15.80989729,.00013201,53.1580,262.7868,109.9694,250.1471,0,U,69824,999,376,.16956993E-2,.349768E-2,0
STARLINK-37690,2026-154G,2026-07-21T04:42:35.453088,15.80946036,.00012427,53.1580,262.8240,103.9701,256.1460,0,U,69825,999,376,.10623603E-2,.215002E-2,0
STARLINK-37710,2026-154H,2026-07-20T16:33:12.249504,15.81021162,.00011743,53.1580,265.3530,35.2473,324.8627,0,U,69826,999,368,.99882444E-3,.202507E-2,0
STARLINK-38031,2026-154J,2026-07-20T16:32:08.591712,15.80929303,.0001078,53.1581,265.3479,104.5528,255.5615,0,U,69827,999,368,.78629644E-3,.157766E-2,0
STARLINK-38001,2026-154K,2026-07-21T04:39:21.029760,15.81014007,.00015165,53.1580,262.8086,110.8451,249.2735,0,U,69828,999,376,.12763883E-2,.260659E-2,0
STARLINK-37622,2026-154L,2026-07-20T14:58:57.086112,15.80918107,.0001181,53.1577,265.6556,84.0964,276.0193,0,U,69829,999,367,.86456004E-3,.173774E-2,0
STARLINK-37621,2026-154M,2026-07-20T21:02:00.734496,15.80946170,.00012819,53.1577,264.3825,65.5576,294.5580,0,U,69830,999,371,.11421622E-2,.231657E-2,0
STARLINK-37918,2026-154N,2026-07-21T04:36:06.609024,15.80952045,.00009015,53.1580,262.7933,115.7348,244.3767,0,U,69831,999,376,.14911701E-2,.305371E-2,0
STARLINK-37887,2026-154P,2026-07-21T04:35:01.724352,15.80941331,.0000952,53.1579,262.7878,103.9298,256.1831,0,U,69832,999,376,.10759744E-2,.21779E-2,0
STARLINK-37624,2026-154Q,2026-07-21T04:33:56.995200,15.81059762,.00023571,53.1578,262.7826,125.4926,234.6317,0,U,69833,999,376,.19548719E-2,.407377E-2,0
STARLINK-37769,2026-154R,2026-07-21T04:32:52.128672,15.81037125,.00016575,53.1579,262.7774,126.9689,233.1486,0,U,69834,999,376,.15419438E-2,.317478E-2,0
STARLINK-37247,2026-154S,2026-07-21T04:31:47.481600,15.81059853,.00016957,53.1576,262.7726,118.4590,241.6603,0,U,69835,999,376,.17556045E-2,.363922E-2,0
STARLINK-37569,2026-154T,2026-07-20T10:18:16.731648,15.80936433,.00009771,53.1581,266.5700,75.4821,284.6310,0,U,69836,999,364,.78079383E-3,.156689E-2,0
STARLINK-37587,2026-154U,2026-07-21T04:29:37.719168,15.81089220,.00012704,53.1574,262.7621,143.7223,216.3886,0,U,69837,999,376,.21179508E-2,.443938E-2,0
STARLINK-37590,2026-154V,2026-07-21T04:28:32.883744,15.80995587,.00018755,53.1589,262.7575,123.0875,237.0328,0,U,69838,999,376,.12865678E-2,.262581E-2,0
