QIANFAN-210             
1 69809U 26153K   26201.86878164  .00000070  00000+0  25919-4 0  9994
2 69809  88.9936 358.3931 0007628 150.9177 209.2439 14.20411043  2351
QIANFAN-211             
1 69810U 26153L   26202.22035031  .00000075  00000+0  28192-4 0  9996
2 69810  88.9929 358.3549 0007853 158.0994 202.0533 14.20224357  2408
QIANFAN-212             
1 69811U 26153M   26201.86237240  .00000072  00000+0  26358-4 0  9991
2 69811  88.9946 358.4130 0011105 164.2291 195.9248 14.21342685  2352
QIANFAN-213             
1 69812U 26153N   26198.90858230 -.02004805  00000+0 -98228+0 0  9992
2 69812  88.9917 358.7338 0007827 155.5754 204.5809 14.21939575  1930
QIANFAN-214             
1 69813U 26153P   26202.27713386  .00000088  00000+0  30865-4 0  9994
2 69813  88.9928 358.3447 0008596 163.4412 196.7063 14.25491976  2413
QIANFAN-215             
1 69814U 26153Q   26202.20522037  .00000089  00000+0  30830-4 0  9992
2 69814  88.9927 358.3524 0008597 165.5586 194.5855 14.26679897  2400
QIANFAN-216             
1 69815U 26153R   26202.27534343  .00000091  00000+0  31397-4 0  9995
2 69815  88.9929 358.3445 0008835 165.5891 194.5557 14.26676687  2413
QIANFAN-217             
1 69816U 26153S   26202.20456800  .00000084  00000+0  28451-4 0  9999
2 69816  88.9927 358.3523 0008340 163.3242 196.8228 14.26768483  2401
QIANFAN-218             
1 69817U 26153T   26202.20407369  .00000183  00000+0  69411-4 0  9997
2 69817  88.9930 358.3528 0008108 160.7587 199.3915 14.26812158  2406
CZ-6A R/B               
1 69818U 26153U   26202.24134348  .00000249  00000+0  52599-4 0  9998
2 69818  89.0170 358.2642 0086864  66.8244 294.2086 14.53450706  2458
STARLINK-37520          
1 69819U 26154A   26201.63177723  .00183070  00000+0  90929-3 0  9998
2 69819  53.1579 265.7058 0002340  26.5616 333.5526 15.80925087  3671
STARLINK-37553          
1 69820U 26154B   26202.19999456  .00448799  00000+0  21399-2 0  9993
2 69820  53.1575 262.8486 0001388 143.3177 216.7941 15.81088792  3760
STARLINK-37561          
1 69821U 26154C   26201.63027879  .00187659  00000+0  93157-3 0  9990
2 69821  53.1578 265.6953 0002943  25.5849 334.5319 15.80922000  3675
STARLINK-37521          
1 69822U 26154D   26201.62952284  .00183077  00000+0  90983-3 0  9991
2 69822  53.1576 265.6901 0001294 102.7861 257.3306 15.80914210  3679
STARLINK-37628          
1 69823U 26154E   26202.19774401  .00295951  00000+0  14462-2 0  9990
2 69823  53.1575 262.8337 0001489 100.2096 259.9095 15.80962837  3761
STARLINK-37695          
1 69824U 26154F   26202.19079707  .00349768  00000+0  16957-2 0  9995
2 69824  53.1580 262.7868 0001320 109.9694 250.1471 15.80989729  3760
STARLINK-37690          
1 69825U 26154G   26202.19624367  .00215002  00000+0  10624-2 0  9992
2 69825  53.1580 262.8240 0001242 103.9701 256.1460 15.80946036  3760
STARLINK-37710          
1 69826U 26154H   26201.68972511  .00202507  00000+0  99882-3 0  9993
2 69826  53.1580 265.3530 0001174  35.2473 324.8627 15.81021162  3682
STARLINK-38031          
1 69827U 26154J   26201.68898833  .00157766  00000+0  78630-3 0  9992
2 69827  53.1581 265.3479 0001078 104.5528 255.5615 15.80929303  3680
STARLINK-38001          
1 69828U 26154K   26202.19399340  .00260659  00000+0  12764-2 0  9990
2 69828  53.1580 262.8086 0001516 110.8451 249.2735 15.81014007  3767
STARLINK-37622          
1 69829U 26154L   26201.62427183  .00173774  00000+0  86456-3 0  9996
2 69829  53.1577 265.6556 0001181  84.0964 276.0193 15.80918107  3675
STARLINK-37621          
1 69830U 26154M   26201.87639739  .00231657  00000+0  11422-2 0  9992
2 69830  53.1577 264.3825 0001281  65.5576 294.5580 15.80946170  3717
STARLINK-37918          
1 69831U 26154N   26202.19174316  .00305371  00000+0  14912-2 0  9996
2 69831  53.1580 262.7933 0000901 115.7348 244.3767 15.80952045  3760
STARLINK-37887          
1 69832U 26154P   26202.19099218  .00217790  00000+0  10760-2 0  9998
2 69832  53.1579 262.7878 0000952 103.9298 256.1831 15.80941331  3765
STARLINK-37624          
1 69833U 26154Q   26202.19024300  .00407377  00000+0  19549-2 0  9995
2 69833  53.1578 262.7826 0002357 125.4926 234.6317 15.81059762  3765
STARLINK-37769          
1 69834U 26154R   26202.18949223  .00317478  00000+0  15419-2 0  9999
2 69834  53.1579 262.7774 0001657 126.9689 233.1486 15.81037125  3763
STARLINK-37247          
1 69835U 26154S   26202.18874400  .00363922  00000+0  17556-2 0  9993
2 69835  53.1576 262.7726 0001695 118.4590 241.6603 15.81059853  3764
STARLINK-37569          
1 69836U 26154T   26201.42936032  .00156689  00000+0  78079-3 0  9998
2 69836  53.1581 266.5700 0000977  75.4821 284.6310 15.80936433  3642
STARLINK-37587          
1 69837U 26154U   26202.18724212  .00443938  00000+0  21180-2 0  9994
2 69837  53.1574 262.7621 0001270 143.7223 216.3886 15.81089220  3764
STARLINK-37590          
1 69838U 26154V   26202.18649171  .00262581  00000+0  12866-2 0  9999
2 69838  53.1589 262.7575 0001875 123.0875 237.0328 15.80995587  3766
